NUSAT-1 (FRESCO)        
1 41557U 16033B   22051.21090101  .00007937  00000+0  26144-3 0  9994
2 41557  97.3878 149.0278 0013374  76.5157 313.7681 15.31664670319423
BEESAT-4                
1 41619U 16040W   22050.86666275  .00008463  00000+0  31355-3 0  9997
2 41619  97.2352 104.8217 0010469 166.6149 193.5371 15.27827563302759
CAS-2T & KS-1Q          
1 41847U 16066G   22050.79042512  .00000678  00000+0  11210-3 0  9990
2 41847  98.5675 115.5231 0364359 201.5541 156.9967 14.38372661277439
NAYIF-1 (EO-88)         
1 42017U 17008BX  22051.10688674  .00009178  00000+0  31050-3 0  9996
2 42017  97.2844 119.1832 0004397 318.5783  41.5124 15.30823493279107
ZHUHAI-1 02 (CAS-4B)    
1 42759U 17034B   22051.08378294  .00002094  00000+0  13646-3 0  9990
2 42759  43.0168 259.1401 0009420 273.8731 228.8966 15.10928565258591
ZHUHAI-1 01 (CAS-4A)    
1 42761U 17034D   22051.05928006  .00002095  00000+0  13621-3 0  9996
2 42761  43.0170 258.1480 0009785 274.6899 221.6516 15.11013553258596
MAX VALIER SAT          
1 42778U 17036P   22050.87635384  .00004785  00000+0  19408-3 0  9996
2 42778  97.2234  96.0796 0012036  30.8795 329.3149 15.25019961258979
RADFXSAT (FOX-1B)       
1 43017U 17073E   22051.00554460  .00002199  00000+0  17247-3 0  9991
2 43017  97.6887 309.9937 0251165 211.8260 146.7566 14.80409568229735
FOX-1D (AO-92)          
1 43137U 18004AC  22050.88301440  .00006047  00000+0  23064-3 0  9992
2 43137  97.3804 127.2595 0009552  63.6126 296.6093 15.27004021228398
DIWATA-2B               
1 43678U 18084H   22051.15584873  .00000435  00000+0  48786-4 0  9998
2 43678  97.9500 183.2102 0009123 320.5933  39.4590 14.91926568180366
ES'HAIL 2               
1 43700U 18090A   22051.14208845  .00000147  00000+0  00000+0 0  9994
2 43700   0.0119 117.4295 0002521 245.9732 223.5825  1.00273455 12094
FOX-1CLIFF (AO-95)      
1 43770U 18099N   22050.87776514  .00001717  00000+0  15873-3 0  9994
2 43770  97.6360 120.2586 0013145 314.3400  45.6743 14.95794592175431
ITASAT 1                
1 43786U 18099AE  22051.15370096  .00001192  00000+0  11116-3 0  9991
2 43786  97.6384 121.3759 0013693 305.4916  54.5027 14.96028192175519
JY1SAT (JO-97)          
1 43803U 18099AX  22050.86980388  .00002006  00000+0  18194-3 0  9997
2 43803  97.6345 120.8363 0013509 305.1942  54.8014 14.96372288175486
UWE-4                   
1 43880U 18111E   22050.68558763  .00002408  00000+0  21180-3 0  9990
2 43880  97.6767 319.0681 0012024   4.3470 355.7854 14.97412901172074
NEXUS (FO-99)           
1 43937U 19003F   22050.83915016  .00007792  00000+0  28772-3 0  9994
2 43937  97.1466  88.9186 0021115 209.6966 150.3077 15.27801804172008
PSAT2 (NO-104)          
1 44354U 19036R   22050.85730881  .00056041  00000+0  63304-3 0  9992
2 44354  28.5235 264.8897 0279062  99.0069 264.2215 15.26060150146627
BRICSAT2 (NO-103)       
1 44355U 19036S   22050.65479936  .00163001  24853-6  90756-3 0  9997
2 44355  28.5219 161.7572 0143120 267.0982  91.3237 15.64708901147631
JAISAT-1                
1 44419U 19038F   22050.90176852  .00004474  00000+0  24044-3 0  9995
2 44419  97.6234  20.3724 0020467 173.2020 186.9494 15.15240645145247
DUCHIFAT-3              
1 44854U 19089C   22051.13061682  .00002465  00000+0  19978-3 0  9992
2 44854  36.9666  75.3692 0008657 342.3081  17.7349 15.00162360120303
CAS-6 (TO-108)          
1 44881U 19093C   22051.13753650  .00000400  00000+0  57651-4 0  9998
2 44881  97.9028 132.0043 0014271 203.0861 156.9718 14.81572560117409
RS-44 & BREEZE-KM R/B   
1 44909U 19096E   22050.76099271  .00000026  00000+0  66679-4 0  9996
2 44909  82.5229 308.4862 0216430 234.7945 123.2723 12.79712044100454
ORBITAL FACTORY 2 (OF-2)
1 45113U 19071C   22050.89902930  .00014110  00000+0  36085-3 0  9992
2 45113  51.6390 275.1021 0011157 113.0910 247.1252 15.39641356115236
HUSKYSAT-1 (HO-107)     
1 45119U 19071J   22050.86018657  .00011317  00000+0  29445-3 0  9997
2 45119  51.6395 274.8269 0010707 108.7647 251.4500 15.39341377115228
BY70-2                  
1 45857U 20042B   22051.17621848  .00004363  00000+0  60824-3 0  9992
2 45857  97.9648 129.2638 0012119 133.0521 227.1651 14.78186543 88124
SALSAT                  
1 46495U 20068K   22050.81777644  .00001308  00000+0  99229-4 0  9993
2 46495  97.7197 352.2250 0015480 321.3579  38.6538 15.03908436 76507
BY70-3                  
1 46839U 20079N   22051.17100043  .00012127  00000+0  33618-3 0  9990
2 46839  97.2135 125.1808 0007502  46.0309  37.9274 15.37057792 72209
RADFXSAT-2 (AO-109)     
1 47311U 21002C   22050.58803222  .00004701  00000+0  20734-3 0  9990
2 47311  60.6849  85.2037 0021101 181.3350 178.7685 15.23231621 60499
UVSQ-SAT                
1 47438U 21006AB  22050.90458025  .00003780  00000+0  21034-3 0  9997
2 47438  97.4541 112.3639 0011438 329.0360  31.0196 15.14205491 59481
DIY-1 (ARDUIQUBE)       
1 47963U 21022AH  22050.97066715  .00007654  00000+0  47651-3 0  9993
2 47963  97.5430 313.9793 0018319 171.4870 188.6674 15.09733839 49207
XW-3 (CAS-9)            
1 50466U 21131B   22051.17497712  .00000096  00000+0  46038-4 0  9996
2 50466  98.5913 128.4472 0005735 131.0729 229.0964 14.38443811  8051
